[
    {
        "CCSDS_OMM_VERS": "3.0",
        "COMMENT": "GENERATED VIA SPACE-TRACK.ORG API",
        "CREATION_DATE": "2024-08-10T22:46:31",
        "ORIGINATOR": "18 SPCS",
        "OBJECT_NAME": "LUOJIA-1 01",
        "OBJECT_ID": "2018-048B",
        "CENTER_NAME": "EARTH",
        "REF_FRAME": "TEME",
        "TIME_SYSTEM": "UTC",
        "MEAN_ELEMENT_THEORY": "SGP4",
        "EPOCH": "2024-08-10T20:51:23.937984",
        "MEAN_MOTION": "14.81721873",
        "ECCENTRICITY": "0.00106220",
        "INCLINATION": "97.8724",
        "RA_OF_ASC_NODE": "301.6775",
        "ARG_OF_PERICENTER": "167.3667",
        "MEAN_ANOMALY": "192.7815",
        "EPHEMERIS_TYPE": "0",
        "CLASSIFICATION_TYPE": "U",
        "NORAD_CAT_ID": "43485",
        "ELEMENT_SET_NO": "999",
        "REV_AT_EPOCH": "33396",
        "BSTAR": "0.00090806000000",
        "MEAN_MOTION_DOT": "0.00007116",
        "MEAN_MOTION_DDOT": "0.0000000000000",
        "SEMIMAJOR_AXIS": "7002.031",
        "PERIOD": "97.184",
        "APOAPSIS": "631.334",
        "PERIAPSIS": "616.459",
        "OBJECT_TYPE": "PAYLOAD",
        "RCS_SIZE": "MEDIUM",
        "COUNTRY_CODE": "PRC",
        "LAUNCH_DATE": "2018-06-02",
        "SITE": "JSC",
        "DECAY_DATE": null,
        "FILE": "4427436",
        "GP_ID": "264737500",
        "TLE_LINE0": "0 LUOJIA-1 01",
        "TLE_LINE1": "1 43485U 18048B   24223.86902706  .00007116  00000-0  90806-3 0  9997",
        "TLE_LINE2": "2 43485  97.8724 301.6775 0010622 167.3667 192.7815 14.81721873333968"
    },
    {
        "CCSDS_OMM_VERS": "3.0",
        "COMMENT": "GENERATED VIA SPACE-TRACK.ORG API",
        "CREATION_DATE": "2024-08-10T22:26:16",
        "ORIGINATOR": "18 SPCS",
        "OBJECT_NAME": "PSLV DEB",
        "OBJECT_ID": "2001-049AH",
        "CENTER_NAME": "EARTH",
        "REF_FRAME": "TEME",
        "TIME_SYSTEM": "UTC",
        "MEAN_ELEMENT_THEORY": "SGP4",
        "EPOCH": "2024-08-10T20:51:22.268736",
        "MEAN_MOTION": "14.94789774",
        "ECCENTRICITY": "0.00566390",
        "INCLINATION": "98.1067",
        "RA_OF_ASC_NODE": "208.5450",
        "ARG_OF_PERICENTER": "155.6003",
        "MEAN_ANOMALY": "267.4625",
        "EPHEMERIS_TYPE": "0",
        "CLASSIFICATION_TYPE": "U",
        "NORAD_CAT_ID": "27089",
        "ELEMENT_SET_NO": "999",
        "REV_AT_EPOCH": "22842",
        "BSTAR": "0.00050367000000",
        "MEAN_MOTION_DOT": "0.00005592",
        "MEAN_MOTION_DDOT": "0.0000000000000",
        "SEMIMAJOR_AXIS": "6961.162",
        "PERIOD": "96.335",
        "APOAPSIS": "622.455",
        "PERIAPSIS": "543.600",
        "OBJECT_TYPE": "DEBRIS",
        "RCS_SIZE": "MEDIUM",
        "COUNTRY_CODE": "IND",
        "LAUNCH_DATE": "2001-10-22",
        "SITE": "SRI",
        "DECAY_DATE": null,
        "FILE": "4427163",
        "GP_ID": "264730808",
        "TLE_LINE0": "0 PSLV DEB",
        "TLE_LINE1": "1 27089U 01049AH  24223.86900774  .00005592  00000-0  50367-3 0  9999",
        "TLE_LINE2": "2 27089  98.1067 208.5450 0056639 155.6003 267.4625 14.94789774228422"
    },
    {
        "CCSDS_OMM_VERS": "3.0",
        "COMMENT": "GENERATED VIA SPACE-TRACK.ORG API",
        "CREATION_DATE": "2024-08-10T22:56:16",
        "ORIGINATOR": "18 SPCS",
        "OBJECT_NAME": "STARLINK-5441",
        "OBJECT_ID": "2022-175AF",
        "CENTER_NAME": "EARTH",
        "REF_FRAME": "TEME",
        "TIME_SYSTEM": "UTC",
        "MEAN_ELEMENT_THEORY": "SGP4",
        "EPOCH": "2024-08-10T20:51:21.132576",
        "MEAN_MOTION": "15.08822289",
        "ECCENTRICITY": "0.00017210",
        "INCLINATION": "53.2149",
        "RA_OF_ASC_NODE": "108.7982",
        "ARG_OF_PERICENTER": "9.4530",
        "MEAN_ANOMALY": "350.6495",
        "EPHEMERIS_TYPE": "0",
        "CLASSIFICATION_TYPE": "U",
        "NORAD_CAT_ID": "54787",
        "ELEMENT_SET_NO": "999",
        "REV_AT_EPOCH": "9083",
        "BSTAR": "0.00202230000000",
        "MEAN_MOTION_DOT": "0.00032028",
        "MEAN_MOTION_DDOT": "0.0000000000000",
        "SEMIMAJOR_AXIS": "6917.935",
        "PERIOD": "95.439",
        "APOAPSIS": "540.990",
        "PERIAPSIS": "538.609",
        "OBJECT_TYPE": "PAYLOAD",
        "RCS_SIZE": "LARGE",
        "COUNTRY_CODE": "US",
        "LAUNCH_DATE": "2022-12-17",
        "SITE": "AFETR",
        "DECAY_DATE": null,
        "FILE": "4427598",
        "GP_ID": "264741306",
        "TLE_LINE0": "0 STARLINK-5441",
        "TLE_LINE1": "1 54787U 22175AF  24223.86899459  .00032028  00000-0  20223-2 0  9995",
        "TLE_LINE2": "2 54787  53.2149 108.7982 0001721   9.4530 350.6495 15.08822289 90831"
    },
    {
        "CCSDS_OMM_VERS": "3.0",
        "COMMENT": "GENERATED VIA SPACE-TRACK.ORG API",
        "CREATION_DATE": "2024-08-10T22:36:16",
        "ORIGINATOR": "18 SPCS",
        "OBJECT_NAME": "COSMOS 2524",
        "OBJECT_ID": "2017-076A",
        "CENTER_NAME": "EARTH",
        "REF_FRAME": "TEME",
        "TIME_SYSTEM": "UTC",
        "MEAN_ELEMENT_THEORY": "SGP4",
        "EPOCH": "2024-08-10T20:51:16.141248",
        "MEAN_MOTION": "13.97260145",
        "ECCENTRICITY": "0.00102470",
        "INCLINATION": "67.1455",
        "RA_OF_ASC_NODE": "35.8897",
        "ARG_OF_PERICENTER": "282.2028",
        "MEAN_ANOMALY": "77.7909",
        "EPHEMERIS_TYPE": "0",
        "CLASSIFICATION_TYPE": "U",
        "NORAD_CAT_ID": "43032",
        "ELEMENT_SET_NO": "999",
        "REV_AT_EPOCH": "34130",
        "BSTAR": "0.00013252000000",
        "MEAN_MOTION_DOT": "0.00000110",
        "MEAN_MOTION_DDOT": "0.0000000000000",
        "SEMIMAJOR_AXIS": "7281.435",
        "PERIOD": "103.059",
        "APOAPSIS": "910.762",
        "PERIAPSIS": "895.839",
        "OBJECT_TYPE": "PAYLOAD",
        "RCS_SIZE": "LARGE",
        "COUNTRY_CODE": "CIS",
        "LAUNCH_DATE": "2017-12-02",
        "SITE": "PKMTR",
        "DECAY_DATE": null,
        "FILE": "4427404",
        "GP_ID": "264731669",
        "TLE_LINE0": "0 COSMOS 2524",
        "TLE_LINE1": "1 43032U 17076A   24223.86893682  .00000110  00000-0  13252-3 0  9994",
        "TLE_LINE2": "2 43032  67.1455  35.8897 0010247 282.2028  77.7909 13.97260145341308"
    },
    {
        "CCSDS_OMM_VERS": "3.0",
        "COMMENT": "GENERATED VIA SPACE-TRACK.ORG API",
        "CREATION_DATE": "2024-08-10T22:46:31",
        "ORIGINATOR": "18 SPCS",
        "OBJECT_NAME": "STARLINK-30178",
        "OBJECT_ID": "2023-105T",
        "CENTER_NAME": "EARTH",
        "REF_FRAME": "TEME",
        "TIME_SYSTEM": "UTC",
        "MEAN_ELEMENT_THEORY": "SGP4",
        "EPOCH": "2024-08-10T20:51:14.714784",
        "MEAN_MOTION": "15.02536529",
        "ECCENTRICITY": "0.00008980",
        "INCLINATION": "42.9994",
        "RA_OF_ASC_NODE": "150.3717",
        "ARG_OF_PERICENTER": "278.1375",
        "MEAN_ANOMALY": "81.9366",
        "EPHEMERIS_TYPE": "0",
        "CLASSIFICATION_TYPE": "U",
        "NORAD_CAT_ID": "57447",
        "ELEMENT_SET_NO": "999",
        "REV_AT_EPOCH": "5895",
        "BSTAR": "0.00004543200000",
        "MEAN_MOTION_DOT": "0.00000410",
        "MEAN_MOTION_DDOT": "0.0000000000000",
        "SEMIMAJOR_AXIS": "6937.215",
        "PERIOD": "95.838",
        "APOAPSIS": "559.703",
        "PERIAPSIS": "558.457",
        "OBJECT_TYPE": "PAYLOAD",
        "RCS_SIZE": "LARGE",
        "COUNTRY_CODE": "US",
        "LAUNCH_DATE": "2023-07-24",
        "SITE": "AFETR",
        "DECAY_DATE": null,
        "FILE": "4427482",
        "GP_ID": "264737340",
        "TLE_LINE0": "0 STARLINK-30178",
        "TLE_LINE1": "1 57447U 23105T   24223.86892031  .00000410  00000-0  45432-4 0  9995",
        "TLE_LINE2": "2 57447  42.9994 150.3717 0000898 278.1375  81.9366 15.02536529 58956"
    },
    {
        "CCSDS_OMM_VERS": "3.0",
        "COMMENT": "GENERATED VIA SPACE-TRACK.ORG API",
        "CREATION_DATE": "2024-08-10T22:26:16",
        "ORIGINATOR": "18 SPCS",
        "OBJECT_NAME": "COSMOS 2251 DEB",
        "OBJECT_ID": "1993-036HX",
        "CENTER_NAME": "EARTH",
        "REF_FRAME": "TEME",
        "TIME_SYSTEM": "UTC",
        "MEAN_ELEMENT_THEORY": "SGP4",
        "EPOCH": "2024-08-10T20:51:13.417920",
        "MEAN_MOTION": "14.60363268",
        "ECCENTRICITY": "0.00343060",
        "INCLINATION": "74.0374",
        "RA_OF_ASC_NODE": "29.5077",
        "ARG_OF_PERICENTER": "192.6036",
        "MEAN_ANOMALY": "167.4276",
        "EPHEMERIS_TYPE": "0",
        "CLASSIFICATION_TYPE": "U",
        "NORAD_CAT_ID": "34036",
        "ELEMENT_SET_NO": "999",
        "REV_AT_EPOCH": "81363",
        "BSTAR": "0.00832520000000",
        "MEAN_MOTION_DOT": "0.00040823",
        "MEAN_MOTION_DDOT": "0.0000000000000",
        "SEMIMAJOR_AXIS": "7070.138",
        "PERIOD": "98.606",
        "APOAPSIS": "716.258",
        "PERIAPSIS": "667.748",
        "OBJECT_TYPE": "DEBRIS",
        "RCS_SIZE": "SMALL",
        "COUNTRY_CODE": "CIS",
        "LAUNCH_DATE": "1993-06-16",
        "SITE": "PKMTR",
        "DECAY_DATE": null,
        "FILE": "4427181",
        "GP_ID": "264729973",
        "TLE_LINE0": "0 COSMOS 2251 DEB",
        "TLE_LINE1": "1 34036U 93036HX  24223.86890530  .00040823  00000-0  83252-2 0  9998",
        "TLE_LINE2": "2 34036  74.0374  29.5077 0034306 192.6036 167.4276 14.60363268813639"
    }
]